{
  "type": "FeatureCollection",
  "features": [
    {
      "type": "Feature",
      "properties": {
        "norad_id": 66909,
        "name": "SILVERSAT",
        "group": "stations",
        "lat": -43.918445286553485,
        "lon": -13.96909563280264,
        "alt_km": 411.70822738878906,
        "timestamp": "2025-12-17T23:38:05.647144+00:00",
        "meta_object_name": "SILVERSAT",
        "meta_object_id": "1998-067XV",
        "meta_epoch": "2025-12-17T14:52:13.127232",
        "meta_mean_motion": 15.5228671,
        "meta_eccentricity": 0.00039762,
        "meta_inclination": 51.6309,
        "meta_ra_of_asc_node": 118.1253,
        "meta_arg_of_pericenter": 257.1224,
        "meta_mean_anomaly": 102.9322,
        "meta_ephemeris_type": 0,
        "meta_classification_type": "U",
        "meta_norad_cat_id": 66909,
        "meta_element_set_no": 999,
        "meta_rev_at_epoch": 237,
        "meta_bstar": 0.0009399615,
        "meta_mean_motion_dot": 0.00058177,
        "meta_mean_motion_ddot": 0,
        "tle_line1": "1 66909U 98067XV  25351.61959638  .00058177  00000+0  93996-3 0  9999",
        "tle_line2": "2 66909  51.6309 118.1253 0003976 257.1224 102.9322 15.52286710  2373"
      },
      "geometry": {
        "type": "Point",
        "coordinates": [
          -13.96909563280264,
          -43.918445286553485
        ]
      }
    },
    {
      "type": "Feature",
      "properties": {
        "norad_id": 66910,
        "name": "1998-067XW",
        "group": "stations",
        "lat": -48.23872179462099,
        "lon": -1.1702570067337756,
        "alt_km": 411.40283321069546,
        "timestamp": "2025-12-17T23:38:05.647154+00:00",
        "meta_object_name": "1998-067XW",
        "meta_object_id": "1998-067XW",
        "meta_epoch": "2025-12-17T14:49:41.645568",
        "meta_mean_motion": 15.52327753,
        "meta_eccentricity": 0.00045296,
        "meta_inclination": 51.6302,
        "meta_ra_of_asc_node": 118.1137,
        "meta_arg_of_pericenter": 233.5237,
        "meta_mean_anomaly": 126.5336,
        "meta_ephemeris_type": 0,
        "meta_classification_type": "U",
        "meta_norad_cat_id": 66910,
        "meta_element_set_no": 999,
        "meta_rev_at_epoch": 237,
        "meta_bstar": 0.00083127757,
        "meta_mean_motion_dot": 0.00051432,
        "meta_mean_motion_ddot": 0,
        "tle_line1": "1 66910U 98067XW  25351.61784312  .00051432  00000+0  83128-3 0  9999",
        "tle_line2": "2 66910  51.6302 118.1137 0004529 233.5237 126.5336 15.52327753  2376"
      },
      "geometry": {
        "type": "Point",
        "coordinates": [
          -1.1702570067337756,
          -48.23872179462099
        ]
      }
    },
    {
      "type": "Feature",
      "properties": {
        "norad_id": 66911,
        "name": "1998-067XX",
        "group": "stations",
        "lat": -50.941734377246284,
        "lon": 13.786428875603313,
        "alt_km": 410.6679099371513,
        "timestamp": "2025-12-17T23:38:05.647167+00:00",
        "meta_object_name": "1998-067XX",
        "meta_object_id": "1998-067XX",
        "meta_epoch": "2025-12-17T14:47:13.814304",
        "meta_mean_motion": 15.52703134,
        "meta_eccentricity": 0.00042191,
        "meta_inclination": 51.6305,
        "meta_ra_of_asc_node": 118.1027,
        "meta_arg_of_pericenter": 237.6725,
        "meta_mean_anomaly": 122.3857,
        "meta_ephemeris_type": 0,
        "meta_classification_type": "U",
        "meta_norad_cat_id": 66911,
        "meta_element_set_no": 999,
        "meta_rev_at_epoch": 236,
        "meta_bstar": 0.00097424314,
        "meta_mean_motion_dot": 0.00061259,
        "meta_mean_motion_ddot": 0,
        "tle_line1": "1 66911U 98067XX  25351.61613211  .00061259  00000+0  97424-3 0  9991",
        "tle_line2": "2 66911  51.6305 118.1027 0004219 237.6725 122.3857 15.52703134  2363"
      },
      "geometry": {
        "type": "Point",
        "coordinates": [
          13.786428875603313,
          -50.941734377246284
        ]
      }
    },
    {
      "type": "Feature",
      "properties": {
        "norad_id": 66912,
        "name": "1998-067XY",
        "group": "stations",
        "lat": -31.411818585985618,
        "lon": -34.712149488432814,
        "alt_km": 413.2343263466437,
        "timestamp": "2025-12-17T23:38:05.647177+00:00",
        "meta_object_name": "1998-067XY",
        "meta_object_id": "1998-067XY",
        "meta_epoch": "2025-12-17T14:57:17.441856",
        "meta_mean_motion": 15.51610619,
        "meta_eccentricity": 0.00041707,
        "meta_inclination": 51.6305,
        "meta_ra_of_asc_node": 118.1486,
        "meta_arg_of_pericenter": 250.1115,
        "meta_mean_anomaly": 109.9425,
        "meta_ephemeris_type": 0,
        "meta_classification_type": "U",
        "meta_norad_cat_id": 66912,
        "meta_element_set_no": 999,
        "meta_rev_at_epoch": 236,
        "meta_bstar": 0.00073122967,
        "meta_mean_motion_dot": 0.00043985,
        "meta_mean_motion_ddot": 0,
        "tle_line1": "1 66912U 98067XY  25351.62311854  .00043985  00000+0  73123-3 0  9997",
        "tle_line2": "2 66912  51.6305 118.1486 0004170 250.1115 109.9425 15.51610619  2368"
      },
      "geometry": {
        "type": "Point",
        "coordinates": [
          -34.712149488432814,
          -31.411818585985618
        ]
      }
    }
  ]
}